QIANFAN-73              
1 63159U 25046A   25307.79542035  .00000058  00000+0  72001-4 0  9999
2 63159  88.9762 324.0580 0013399 231.9092 128.0852 13.50972480 42156
QIANFAN-74              
1 63160U 25046B   25307.77892770  .00000062  00000+0  77853-4 0  9998
2 63160  88.9762 323.9482 0002075  92.9405 267.1984 13.50974282 42219
QIANFAN-75              
1 63161U 25046C   25307.69233147  .00000113  00000+0  15653-3 0  9993
2 63161  88.9764 324.1902 0014465 235.9314 124.0465 13.50984358 42070
QIANFAN-76              
1 63162U 25046D   25307.76249950 -.00000122  00000+0 -20761-3 0  9999
2 63162  88.9761 324.1637 0012064 235.7982 124.2027 13.50969966 42091
QIANFAN-77              
1 63163U 25046E   25307.76692291  .00000186  00000+0  12552-3 0  9997
2 63163  88.9762 322.4902 0014165 194.3298 165.7479 13.96079489 43019
QIANFAN-78              
1 63164U 25046F   25307.80364427  .00000020  00000+0  11791-4 0  9992
2 63164  88.9762 324.0239 0013358 238.4857 121.4990 13.50974191 42172
QIANFAN-79              
1 63165U 25046G   25307.75826817  .00000038  00000+0  41059-4 0  9992
2 63165  88.9766 324.1347 0013083 236.5606 123.4295 13.50974056 42118
QIANFAN-80              
1 63166U 25046H   25307.77482154  .00000103  00000+0  14112-3 0  9999
2 63166  88.9763 323.8407 0011976 241.1866 118.8083 13.50976139 42272
